ATLAS CENTAUR R/B       
1 06155U 72065B   26052.34205862  .00001256  00000+0  17418-3 0  9999
2 06155  35.0022  41.5509 0034332 233.2518 126.5028 14.77635003838845
SL-8 R/B                
1 08459U 75112B   26052.43482193  .00000137  00000+0  53557-4 0  9990
2 08459  74.0597  48.8141 0014876 148.3974 211.8077 14.38193973629537
SL-3 R/B                
1 10114U 77057B   26052.46489814  .00013782  00000+0  29401-3 0  9991
2 10114  97.5751 223.6800 0007047 350.2270   9.8839 15.44991147665820
SEASAT 1                
1 10967U 78064A   26051.96387388  .00000193  00000+0  92462-4 0  9993
2 10967 108.0149  90.4001 0001919 290.0635  70.0304 14.46146234504094
SL-14 R/B               
1 11267U 79011B   26052.21529357  .00000530  00000+0  49744-4 0  9993
2 11267  82.5234 112.2050 0017581 111.0800 249.2302 14.91887314526323
SL-8 R/B                
1 11574U 79089B   26052.44598995  .00000215  00000+0  73034-4 0  9997
2 11574  74.0687 121.1139 0016948 295.4162  64.5240 14.42339957433768
SL-14 R/B               
1 11672U 80005B   26052.21748562  .00000560  00000+0  54110-4 0  9995
2 11672  82.5170 322.8578 0014718 213.8798 146.1482 14.90908229474034
SL-8 R/B                
1 12139U 81003B   26052.17532339  .00015601  00000+0  40875-3 0  9995
2 12139  82.9390 305.2875 0262664 236.0934 121.5070 15.10327732312184
SL-3 R/B                
1 12465U 81046B   26052.42919388  .00012810  00000+0  30221-3 0  9998
2 12465  81.2326 309.2615 0020698  76.2435 284.1110 15.41523511435928
SL-3 R/B                
1 12904U 81103B   26052.46002587  .00005029  00000+0  22419-3 0  9992
2 12904  81.1561 232.4698 0013033 344.3068  15.7757 15.21160972970767
SL-3 R/B                
1 13068U 82013B   26052.47502068  .00004934  00000+0  21477-3 0  9992
2 13068  81.1764 179.7681 0021901 233.0921 126.8305 15.21825139401882
SL-3 R/B                
1 13154U 82039B   26052.48836036  .00002130  00000+0  12844-3 0  9996
2 13154  81.1590 234.6385 0030018  17.3660 342.8584 15.09979154379199
