CCSDS_OMM_VERS = 2.0
CREATION_DATE  = 
ORIGINATOR     = 

OBJECT_NAME    = ATLAS CENTAUR R/B
OBJECT_ID      = 1972-065B
CENTER_NAME    = EARTH
REF_FRAME      = TEME
TIME_SYSTEM    = UTC
MEAN_ELEMENT_THEORY = SGP/SGP4

EPOCH          = 2026-02-21T08:12:33.864768
MEAN_MOTION    = 14.77635003
ECCENTRICITY   = .0034332
INCLINATION    = 35.0022
RA_OF_ASC_NODE = 41.5509
ARG_OF_PERICENTER = 233.2518
MEAN_ANOMALY   = 126.5028

EPHEMERIS_TYPE = 0
CLASSIFICATION_TYPE = U
NORAD_CAT_ID   = 6155
ELEMENT_SET_NO = 999
REV_AT_EPOCH   = 83884
BSTAR          = .17418E-3
MEAN_MOTION_DOT = .1256E-4
MEAN_MOTION_DDOT = 0

CCSDS_OMM_VERS = 2.0
CREATION_DATE  = 
ORIGINATOR     = 

OBJECT_NAME    = SL-8 R/B
OBJECT_ID      = 1975-112B
CENTER_NAME    = EARTH
REF_FRAME      = TEME
TIME_SYSTEM    = UTC
MEAN_ELEMENT_THEORY = SGP/SGP4

EPOCH          = 2026-02-21T10:26:08.614752
MEAN_MOTION    = 14.38193973
ECCENTRICITY   = .0014876
INCLINATION    = 74.0597
RA_OF_ASC_NODE = 48.8141
ARG_OF_PERICENTER = 148.3974
MEAN_ANOMALY   = 211.8077

EPHEMERIS_TYPE = 0
CLASSIFICATION_TYPE = U
NORAD_CAT_ID   = 8459
ELEMENT_SET_NO = 999
REV_AT_EPOCH   = 62953
BSTAR          = .53557E-4
MEAN_MOTION_DOT = .137E-5
MEAN_MOTION_DDOT = 0

CCSDS_OMM_VERS = 2.0
CREATION_DATE  = 
ORIGINATOR     = 

OBJECT_NAME    = SL-3 R/B
OBJECT_ID      = 1977-057B
CENTER_NAME    = EARTH
REF_FRAME      = TEME
TIME_SYSTEM    = UTC
MEAN_ELEMENT_THEORY = SGP/SGP4

EPOCH          = 2026-02-21T11:09:27.199296
MEAN_MOTION    = 15.44991147
ECCENTRICITY   = .0007047
INCLINATION    = 97.5751
RA_OF_ASC_NODE = 223.6800
ARG_OF_PERICENTER = 350.2270
MEAN_ANOMALY   = 9.8839

EPHEMERIS_TYPE = 0
CLASSIFICATION_TYPE = U
NORAD_CAT_ID   = 10114
ELEMENT_SET_NO = 999
REV_AT_EPOCH   = 66582
BSTAR          = .29401E-3
MEAN_MOTION_DOT = .13782E-3
MEAN_MOTION_DDOT = 0

CCSDS_OMM_VERS = 2.0
CREATION_DATE  = 
ORIGINATOR     = 

OBJECT_NAME    = SEASAT 1
OBJECT_ID      = 1978-064A
CENTER_NAME    = EARTH
REF_FRAME      = TEME
TIME_SYSTEM    = UTC
MEAN_ELEMENT_THEORY = SGP/SGP4

EPOCH          = 2026-02-20T23:07:58.703232
MEAN_MOTION    = 14.46146234
ECCENTRICITY   = .00019195
INCLINATION    = 108.0149
RA_OF_ASC_NODE = 90.4001
ARG_OF_PERICENTER = 290.0635
MEAN_ANOMALY   = 70.0304

EPHEMERIS_TYPE = 0
CLASSIFICATION_TYPE = U
NORAD_CAT_ID   = 10967
ELEMENT_SET_NO = 999
REV_AT_EPOCH   = 50409
BSTAR          = .92461589E-4
MEAN_MOTION_DOT = .193E-5
MEAN_MOTION_DDOT = 0

CCSDS_OMM_VERS = 2.0
CREATION_DATE  = 
ORIGINATOR     = 

OBJECT_NAME    = SL-14 R/B
OBJECT_ID      = 1979-011B
CENTER_NAME    = EARTH
REF_FRAME      = TEME
TIME_SYSTEM    = UTC
MEAN_ELEMENT_THEORY = SGP/SGP4

EPOCH          = 2026-02-21T05:10:01.364448
MEAN_MOTION    = 14.91887314
ECCENTRICITY   = .0017581
INCLINATION    = 82.5234
RA_OF_ASC_NODE = 112.2050
ARG_OF_PERICENTER = 111.0800
MEAN_ANOMALY   = 249.2302

EPHEMERIS_TYPE = 0
CLASSIFICATION_TYPE = U
NORAD_CAT_ID   = 11267
ELEMENT_SET_NO = 999
REV_AT_EPOCH   = 52632
BSTAR          = .49744E-4
MEAN_MOTION_DOT = .53E-5
MEAN_MOTION_DDOT = 0

CCSDS_OMM_VERS = 2.0
CREATION_DATE  = 
ORIGINATOR     = 

OBJECT_NAME    = SL-8 R/B
OBJECT_ID      = 1979-089B
CENTER_NAME    = EARTH
REF_FRAME      = TEME
TIME_SYSTEM    = UTC
MEAN_ELEMENT_THEORY = SGP/SGP4

EPOCH          = 2026-02-21T10:42:13.531680
MEAN_MOTION    = 14.42339957
ECCENTRICITY   = .0016948
INCLINATION    = 74.0687
RA_OF_ASC_NODE = 121.1139
ARG_OF_PERICENTER = 295.4162
MEAN_ANOMALY   = 64.5240

EPHEMERIS_TYPE = 0
CLASSIFICATION_TYPE = U
NORAD_CAT_ID   = 11574
ELEMENT_SET_NO = 999
REV_AT_EPOCH   = 43376
BSTAR          = .73034E-4
MEAN_MOTION_DOT = .215E-5
MEAN_MOTION_DDOT = 0

CCSDS_OMM_VERS = 2.0
CREATION_DATE  = 
ORIGINATOR     = 

OBJECT_NAME    = SL-14 R/B
OBJECT_ID      = 1980-005B
CENTER_NAME    = EARTH
REF_FRAME      = TEME
TIME_SYSTEM    = UTC
MEAN_ELEMENT_THEORY = SGP/SGP4

EPOCH          = 2026-02-21T05:13:10.757568
MEAN_MOTION    = 14.90908229
ECCENTRICITY   = .0014718
INCLINATION    = 82.5170
RA_OF_ASC_NODE = 322.8578
ARG_OF_PERICENTER = 213.8798
MEAN_ANOMALY   = 146.1482

EPHEMERIS_TYPE = 0
CLASSIFICATION_TYPE = U
NORAD_CAT_ID   = 11672
ELEMENT_SET_NO = 999
REV_AT_EPOCH   = 47403
BSTAR          = .5411E-4
MEAN_MOTION_DOT = .56E-5
MEAN_MOTION_DDOT = 0

CCSDS_OMM_VERS = 2.0
CREATION_DATE  = 
ORIGINATOR     = 

OBJECT_NAME    = SL-8 R/B
OBJECT_ID      = 1981-003B
CENTER_NAME    = EARTH
REF_FRAME      = TEME
TIME_SYSTEM    = UTC
MEAN_ELEMENT_THEORY = SGP/SGP4

EPOCH          = 2026-02-21T04:12:27.940896
MEAN_MOTION    = 15.10327732
ECCENTRICITY   = .0262664
INCLINATION    = 82.9390
RA_OF_ASC_NODE = 305.2875
ARG_OF_PERICENTER = 236.0934
MEAN_ANOMALY   = 121.5070

EPHEMERIS_TYPE = 0
CLASSIFICATION_TYPE = U
NORAD_CAT_ID   = 12139
ELEMENT_SET_NO = 999
REV_AT_EPOCH   = 31218
BSTAR          = .40875E-3
MEAN_MOTION_DOT = .15601E-3
MEAN_MOTION_DDOT = 0

CCSDS_OMM_VERS = 2.0
CREATION_DATE  = 
ORIGINATOR     = 

OBJECT_NAME    = SL-3 R/B
OBJECT_ID      = 1981-046B
CENTER_NAME    = EARTH
REF_FRAME      = TEME
TIME_SYSTEM    = UTC
MEAN_ELEMENT_THEORY = SGP/SGP4

EPOCH          = 2026-02-21T10:18:02.351232
MEAN_MOTION    = 15.41523511
ECCENTRICITY   = .0020698
INCLINATION    = 81.2326
RA_OF_ASC_NODE = 309.2615
ARG_OF_PERICENTER = 76.2435
MEAN_ANOMALY   = 284.1110

EPHEMERIS_TYPE = 0
CLASSIFICATION_TYPE = U
NORAD_CAT_ID   = 12465
ELEMENT_SET_NO = 999
REV_AT_EPOCH   = 43592
BSTAR          = .30221E-3
MEAN_MOTION_DOT = .1281E-3
MEAN_MOTION_DDOT = 0

CCSDS_OMM_VERS = 2.0
CREATION_DATE  = 
ORIGINATOR     = 

OBJECT_NAME    = SL-3 R/B
OBJECT_ID      = 1981-103B
CENTER_NAME    = EARTH
REF_FRAME      = TEME
TIME_SYSTEM    = UTC
MEAN_ELEMENT_THEORY = SGP/SGP4

EPOCH          = 2026-02-21T11:02:26.235168
MEAN_MOTION    = 15.21160972
ECCENTRICITY   = .0013033
INCLINATION    = 81.1561
RA_OF_ASC_NODE = 232.4698
ARG_OF_PERICENTER = 344.3068
MEAN_ANOMALY   = 15.7757

EPHEMERIS_TYPE = 0
CLASSIFICATION_TYPE = U
NORAD_CAT_ID   = 12904
ELEMENT_SET_NO = 999
REV_AT_EPOCH   = 97076
BSTAR          = .22419E-3
MEAN_MOTION_DOT = .5029E-4
MEAN_MOTION_DDOT = 0

CCSDS_OMM_VERS = 2.0
CREATION_DATE  = 
ORIGINATOR     = 

OBJECT_NAME    = SL-3 R/B
OBJECT_ID      = 1982-013B
CENTER_NAME    = EARTH
REF_FRAME      = TEME
TIME_SYSTEM    = UTC
MEAN_ELEMENT_THEORY = SGP/SGP4

EPOCH          = 2026-02-21T11:24:01.786752
MEAN_MOTION    = 15.21825139
ECCENTRICITY   = .0021901
INCLINATION    = 81.1764
RA_OF_ASC_NODE = 179.7681
ARG_OF_PERICENTER = 233.0921
MEAN_ANOMALY   = 126.8305

EPHEMERIS_TYPE = 0
CLASSIFICATION_TYPE = U
NORAD_CAT_ID   = 13068
ELEMENT_SET_NO = 999
REV_AT_EPOCH   = 40188
BSTAR          = .21477E-3
MEAN_MOTION_DOT = .4934E-4
MEAN_MOTION_DDOT = 0

CCSDS_OMM_VERS = 2.0
CREATION_DATE  = 
ORIGINATOR     = 

OBJECT_NAME    = SL-3 R/B
OBJECT_ID      = 1982-039B
CENTER_NAME    = EARTH
REF_FRAME      = TEME
TIME_SYSTEM    = UTC
MEAN_ELEMENT_THEORY = SGP/SGP4

EPOCH          = 2026-02-21T11:43:14.335104
MEAN_MOTION    = 15.09979154
ECCENTRICITY   = .0030018
INCLINATION    = 81.1590
RA_OF_ASC_NODE = 234.6385
ARG_OF_PERICENTER = 17.3660
MEAN_ANOMALY   = 342.8584

EPHEMERIS_TYPE = 0
CLASSIFICATION_TYPE = U
NORAD_CAT_ID   = 13154
ELEMENT_SET_NO = 999
REV_AT_EPOCH   = 37919
BSTAR          = .12844E-3
MEAN_MOTION_DOT = .213E-4
MEAN_MOTION_DDOT = 0

